OBJECT_NAME,OBJECT_ID,EPOCH,MEAN_MOTION,ECCENTRICITY,INCLINATION,RA_OF_ASC_NODE,ARG_OF_PERICENTER,MEAN_ANOMALY,EPHEMERIS_TYPE,CLASSIFICATION_TYPE,NORAD_CAT_ID,ELEMENT_SET_NO,REV_AT_EPOCH,BSTAR,MEAN_MOTION_DOT,MEAN_MOTION_DDOT
STARLINK-31991,2024-107U,2026-07-09T11:22:42.917376,15.34428561,.00013309,53.1590,219.0438,69.5609,290.5536,0,U,59963,999,11845,.25430882E-3,.8233E-4,0
STARLINK-31979,2024-107V,2026-07-09T01:32:43.131840,15.34390128,.00017279,53.1600,220.7497,144.9103,215.2014,0,U,59964,999,11834,.13157442E-3,.407E-4,0
STARLINK-31978,2024-111A,2026-07-10T02:48:32.472864,15.31704614,.00010243,53.1585,226.5451,82.5128,277.5990,0,U,60016,999,11768,.11380159E-4,-.12E-6,0
STARLINK-31987,2024-111B,2026-07-10T02:55:18.126048,15.31688343,.00011084,53.1598,226.5738,71.3616,288.7505,0,U,60017,999,11774,-.10631773E-3,-.3661E-4,0
STARLINK-31984,2024-111C,2026-07-09T09:18:40.193280,15.30203121,.00011124,53.1586,230.5206,100.1536,259.9590,0,U,60018,999,11751,-.31106854E-4,-.128E-4,0
STARLINK-31986,2024-111D,2026-07-10T02:19:35.789664,15.30194951,.00012448,53.1592,227.1204,96.2681,263.8462,0,U,60019,999,11778,.2842868E-4,.483E-5,0
STARLINK-31883,2024-111E,2026-07-09T03:17:39.327072,15.30197179,.00011132,53.1586,231.8033,67.5545,292.5574,0,U,60020,999,11757,.31679635E-4,.579E-5,0
STARLINK-31967,2024-111F,2026-07-08T02:23:21.841440,15.34376570,.00011971,53.1587,233.8641,69.4910,290.6221,0,U,60021,999,11751,.69547491E-4,.1973E-4,0
STARLINK-31982,2024-111G,2026-07-10T02:41:55.572864,15.34378843,.00013472,53.1586,224.3898,68.5221,291.5926,0,U,60022,999,11782,.57118635E-4,.1553E-4,0
STARLINK-31992,2024-111H,2026-07-09T10:31:27.880032,15.30179708,.0000707,53.1598,230.1297,90.9832,269.1250,0,U,60023,999,11768,.534443E-6,-.343E-5,0
STARLINK-31990,2024-111J,2026-07-09T08:51:19.122048,15.30192769,.00019439,53.1611,230.4048,92.0482,268.0741,0,U,60024,999,11766,.38892019E-4,.792E-5,0
STARLINK-31939,2024-111L,2026-07-10T01:46:10.485408,15.30186335,.0001118,53.1603,226.9803,82.4599,277.6528,0,U,60026,999,11777,-.24789514E-4,-.1093E-4,0
STARLINK-32012,2024-111M,2026-07-09T02:19:55.847424,15.30200052,.00013522,53.1596,231.5464,83.2618,276.8536,0,U,60027,999,11762,.68633405E-4,.1674E-4,0
STARLINK-32008,2024-111N,2026-07-09T11:50:20.223168,15.30207139,.00012468,53.1589,229.7505,75.3608,284.7531,0,U,60028,999,11768,.2054769E-3,.5733E-4,0
STARLINK-32006,2024-111P,2026-07-10T02:10:28.162272,15.30194041,.00011166,53.1588,227.0854,78.7582,281.3544,0,U,60029,999,11777,.6299812E-5,-.173E-5,0
STARLINK-32011,2024-111Q,2026-07-10T02:47:59.890560,15.34382203,.00013083,53.1592,224.4160,67.8727,292.2414,0,U,60030,999,11781,-.2369423E-4,-.1176E-4,0
STARLINK-31878,2024-111R,2026-07-09T15:39:25.874784,15.34397676,.00012528,53.1592,175.9552,100.4756,259.6388,0,U,60031,999,11820,.21503951E-4,.35E-5,0
STARLINK-32017,2024-111S,2026-07-09T09:01:57.982656,15.30204581,.00009264,53.1589,230.4673,88.9784,271.1323,0,U,60032,999,11766,.10002111E-3,.2605E-4,0
STARLINK-32005,2024-111U,2026-07-10T02:01:21.137952,15.30199107,.00010428,53.1593,227.0436,71.7857,288.3257,0,U,60034,999,11767,.16218543E-3,.4447E-4,0
STARLINK-31981,2024-111V,2026-07-10T02:28:42.423456,15.30194921,.00014017,53.1592,227.1613,76.9598,283.1559,0,U,60035,999,11770,-.4603831E-5,-.496E-5,0
STARLINK-31985,2024-111W,2026-07-10T02:24:08.838720,15.30192444,.0001048,53.1594,227.1413,79.9277,280.1842,0,U,60036,999,11771,-.9405384E-5,-.637E-5,0
STARLINK-31918,2024-111X,2026-07-10T04:49:43.184064,15.30224059,.00028421,53.1591,226.3501,113.2413,246.8887,0,U,60037,999,11772,-.19411146E-3,-.611E-4,0
STARLINK-11129 [DTC],2024-112A,2026-07-08T23:04:23.092032,15.69736959,.00011281,53.1589,28.7704,116.5887,243.5246,0,U,60038,999,12002,.2990974E-4,.304E-4,0
STARLINK-11140 [DTC],2024-112B,2026-07-08T22:57:19.650816,15.69739799,.00008319,53.1585,28.7370,112.2513,247.8593,0,U,60039,999,12002,-.22537345E-4,-.3321E-4,0
STARLINK-11122 [DTC],2024-112C,2026-07-08T19:46:54.226272,15.69707975,.00009536,53.1582,29.3365,57.5117,302.5993,0,U,60040,999,12000,.21768649E-4,.2049E-4,0
STARLINK-11149 [DTC],2024-112D,2026-07-08T18:08:09.341952,15.69716348,.00009571,53.1590,29.6177,82.2274,277.8853,0,U,60041,999,11999,.12096032E-4,.878E-5,0
STARLINK-11120 [DTC],2024-112E,2026-07-09T12:21:19.250496,15.69711918,.00021256,53.1591,25.8156,138.8437,221.2741,0,U,60042,999,12011,-.44361158E-4,-.5962E-4,0
STARLINK-11086 [DTC],2024-112F,2026-07-08T22:29:04.729920,15.69736854,.0002963,53.1587,28.6072,69.6458,290.4878,0,U,60043,999,12002,-.6251541E-5,-.135E-4,0
STARLINK-11148 [DTC],2024-112G,2026-07-08T19:18:38.877696,15.69717349,.00006829,53.1588,29.2028,89.2368,270.8728,0,U,60044,999,12000,.12909393E-4,.977E-5,0
STARLINK-11116 [DTC],2024-112H,2026-07-10T06:20:17.133216,15.69724545,.00008493,53.1588,21.9511,101.3767,258.7346,0,U,60045,999,12023,.2211917E-4,.2094E-4,0
