STARLINK-31991          
1 59963U 24107U   26190.47410784  .00008233  00000+0  25431-3 0  9992
2 59963  53.1590 219.0438 0001330  69.5609 290.5536 15.34428561118454
STARLINK-31979          
1 59964U 24107V   26190.06438810  .00004070  00000+0  13157-3 0  9995
2 59964  53.1600 220.7497 0001727 144.9103 215.2014 15.34390128118348
STARLINK-31978          
1 60016U 24111A   26191.11704251 -.00000012  00000+0  11380-4 0  9992
2 60016  53.1585 226.5451 0001024  82.5128 277.5990 15.31704614117684
STARLINK-31987          
1 60017U 24111B   26191.12173757 -.00003661  00000+0 -10632-3 0  9997
2 60017  53.1598 226.5738 0001108  71.3616 288.7505 15.31688343117741
STARLINK-31984          
1 60018U 24111C   26190.38796520 -.00001280  00000+0 -31107-4 0  9990
2 60018  53.1586 230.5206 0001112 100.1536 259.9590 15.30203121117516
STARLINK-31986          
1 60019U 24111D   26191.09694201  .00000483  00000+0  28429-4 0  9998
2 60019  53.1592 227.1204 0001244  96.2681 263.8462 15.30194951117787
STARLINK-31883          
1 60020U 24111E   26190.13726073  .00000579  00000+0  31680-4 0  9996
2 60020  53.1586 231.8033 0001113  67.5545 292.5574 15.30197179117574
STARLINK-31967          
1 60021U 24111F   26189.09955835  .00001973  00000+0  69547-4 0  9992
2 60021  53.1587 233.8641 0001197  69.4910 290.6221 15.34376570117512
STARLINK-31982          
1 60022U 24111G   26191.11244876  .00001553  00000+0  57119-4 0  9991
2 60022  53.1586 224.3898 0001347  68.5221 291.5926 15.34378843117824
STARLINK-31992          
1 60023U 24111H   26190.43851713 -.00000343  00000+0  53444-6 0  9996
2 60023  53.1598 230.1297 0000707  90.9832 269.1250 15.30179708117682
STARLINK-31990          
1 60024U 24111J   26190.36897132  .00000792  00000+0  38892-4 0  9999
2 60024  53.1611 230.4048 0001943  92.0482 268.0741 15.30192769117666
STARLINK-31939          
1 60026U 24111L   26191.07373247 -.00001093  00000+0 -24790-4 0  9995
2 60026  53.1603 226.9803 0001118  82.4599 277.6528 15.30186335117777
STARLINK-32012          
1 60027U 24111M   26190.09717416  .00001674  00000+0  68633-4 0  9994
2 60027  53.1596 231.5464 0001352  83.2618 276.8536 15.30200052117622
STARLINK-32008          
1 60028U 24111N   26190.49328962  .00005733  00000+0  20548-3 0  9995
2 60028  53.1589 229.7505 0001246  75.3608 284.7531 15.30207139117685
STARLINK-32006          
1 60029U 24111P   26191.09060373 -.00000173  00000+0  62998-5 0  9993
2 60029  53.1588 227.0854 0001116  78.7582 281.3544 15.30194041117771
STARLINK-32011          
1 60030U 24111Q   26191.11666540 -.00001176  00000+0 -23694-4 0  9990
2 60030  53.1592 224.4160 0001308  67.8727 292.2414 15.34382203117817
STARLINK-31878          
1 60031U 24111R   26190.65238281  .00000350  00000+0  21504-4 0  9995
2 60031  53.1592 175.9552 0001252 100.4756 259.6388 15.34397676118208
STARLINK-32017          
1 60032U 24111S   26190.37636554  .00002605  00000+0  10002-3 0  9995
2 60032  53.1589 230.4673 0000926  88.9784 271.1323 15.30204581117669
STARLINK-32005          
1 60034U 24111U   26191.08427243  .00004447  00000+0  16219-3 0  9991
2 60034  53.1593 227.0436 0001042  71.7857 288.3257 15.30199107117670
STARLINK-31981          
1 60035U 24111V   26191.10326879 -.00000496  00000+0 -46038-5 0  9994
2 60035  53.1592 227.1613 0001401  76.9598 283.1559 15.30194921117707
STARLINK-31985          
1 60036U 24111W   26191.10010230 -.00000637  00000+0 -94054-5 0  9994
2 60036  53.1594 227.1413 0001048  79.9277 280.1842 15.30192444117713
STARLINK-31918          
1 60037U 24111X   26191.20119426 -.00006110  00000+0 -19411-3 0  9997
2 60037  53.1591 226.3501 0002842 113.2413 246.8887 15.30224059117724
STARLINK-11129 [DTC]    
1 60038U 24112A   26189.96137838  .00003040  00000+0  29910-4 0  9999
2 60038  53.1589  28.7704 0001128 116.5887 243.5246 15.69736959120027
STARLINK-11140 [DTC]    
1 60039U 24112B   26189.95647744 -.00003321  00000+0 -22537-4 0  9993
2 60039  53.1585  28.7370 0000831 112.2513 247.8593 15.69739799120029
STARLINK-11122 [DTC]    
1 60040U 24112C   26189.82423873  .00002049  00000+0  21769-4 0  9996
2 60040  53.1582  29.3365 0000953  57.5117 302.5993 15.69707975120007
STARLINK-11149 [DTC]    
1 60041U 24112D   26189.75566368  .00000878  00000+0  12096-4 0  9997
2 60041  53.1590  29.6177 0000957  82.2274 277.8853 15.69716348119993
STARLINK-11120 [DTC]    
1 60042U 24112E   26190.51480614 -.00005962  00000+0 -44361-4 0  9994
2 60042  53.1591  25.8156 0002125 138.8437 221.2741 15.69711918120111
STARLINK-11086 [DTC]    
1 60043U 24112F   26189.93686030 -.00001350  00000+0 -62515-5 0  9998
2 60043  53.1587  28.6072 0002963  69.6458 290.4878 15.69736854120024
STARLINK-11148 [DTC]    
1 60044U 24112G   26189.80461664  .00000977  00000+0  12909-4 0  9992
2 60044  53.1588  29.2028 0000682  89.2368 270.8728 15.69717349120000
STARLINK-11116 [DTC]    
1 60045U 24112H   26191.26408719  .00002094  00000+0  22119-4 0  9994
2 60045  53.1588  21.9511 0000849 101.3767 258.7346 15.69724545120233
